[{"OBJECT_NAME":"ONEWEB-0541","OBJECT_ID":"2023-004C","EPOCH":"2026-03-09T22:05:05.713728","MEAN_MOTION":13.11415686,"ECCENTRICITY":0.00019799,"INCLINATION":87.8866,"RA_OF_ASC_NODE":40.7872,"ARG_OF_PERICENTER":81.1178,"MEAN_ANOMALY":279.0174,"EPHEMERIS_TYPE":0,"CLASSIFICATION_TYPE":"U","NORAD_CAT_ID":55142,"ELEMENT_SET_NO":999,"REV_AT_EPOCH":15293,"BSTAR":0.00082631926,"MEAN_MOTION_DOT":3.06e-6,"MEAN_MOTION_DDOT":0},{"OBJECT_NAME":"UNKNOWN","OBJECT_ID":"","EPOCH":"2026-03-06T05:38:45.804768","MEAN_MOTION":13.04765261,"ECCENTRICITY":0.00331924,"INCLINATION":90.1613,"RA_OF_ASC_NODE":356.2188,"ARG_OF_PERICENTER":80.743,"MEAN_ANOMALY":279.7447,"EPHEMERIS_TYPE":0,"CLASSIFICATION_TYPE":"U","NORAD_CAT_ID":270015,"ELEMENT_SET_NO":999,"REV_AT_EPOCH":29864,"BSTAR":0.0020511977,"MEAN_MOTION_DOT":6.7e-6,"MEAN_MOTION_DDOT":0}]
